{
    "links": {
        "self": "http://www.neowsapp.com/rest/v1/neo/3717107?api_key=iIulBulltgU6a56xZRHN4H3l9WmuAYTsLGpBGhQ2"
    },
    "id": "3717107",
    "neo_reference_id": "3717107",
    "name": "(2015 HV11)",
    "designation": "2015 HV11",
    "nasa_jpl_url": "http://ssd.jpl.nasa.gov/sbdb.cgi?sstr=3717107",
    "absolute_magnitude_h": 24.1,
    "estimated_diameter": {
        "kilometers": {
            "estimated_diameter_min": 0.040230458,
            "estimated_diameter_max": 0.0899580388
        },
        "meters": {
            "estimated_diameter_min": 40.2304579834,
            "estimated_diameter_max": 89.9580388169
        },
        "miles": {
            "estimated_diameter_min": 0.0249980399,
            "estimated_diameter_max": 0.0558973165
        },
        "feet": {
            "estimated_diameter_min": 131.9896957704,
            "estimated_diameter_max": 295.1379320721
        }
    },
    "is_potentially_hazardous_asteroid": false,
    "close_approach_data": [
        {
            "close_approach_date": "2015-05-16",
            "close_approach_date_full": "2015-May-16 09:00",
            "epoch_date_close_approach": 1431766800000,
            "relative_velocity": {
                "kilometers_per_second": "6.4334828948",
                "kilometers_per_hour": "23160.5384212902",
                "miles_per_hour": "14391.0578873845"
            },
            "miss_distance": {
                "astronomical": "0.0600907584",
                "lunar": "23.3753050176",
                "kilometers": "8989449.463324608",
                "miles": "5585784.8802232704"
            },
            "orbiting_body": "Earth"
        }
    ],
    "orbital_data": {
        "orbit_id": "14",
        "orbit_determination_date": "2017-04-06 08:34:06",
        "first_observation_date": "2015-04-22",
        "last_observation_date": "2015-05-18",
        "data_arc_in_days": 26,
        "observations_used": 87,
        "orbit_uncertainty": "7",
        "minimum_orbit_intersection": ".0589373",
        "jupiter_tisserand_invariant": "3.793",
        "epoch_osculation": "2459000.5",
        "eccentricity": ".4423784892992423",
        "semi_major_axis": "1.918315507442791",
        "inclination": "7.014429077115125",
        "ascending_node_longitude": "58.61839535930073",
        "orbital_period": "970.4618853789765",
        "perihelion_distance": "1.06969399126094",
        "perihelion_argument": "174.6182488560839",
        "aphelion_distance": "2.766937023624643",
        "perihelion_time": "2459097.846833781698",
        "mean_anomaly": "323.8884734275517",
        "mean_motion": ".370957381658957",
        "equinox": "J2000",
        "orbit_class": {
            "orbit_class_type": "AMO",
            "orbit_class_description": "Near-Earth asteroid orbits similar to that of 1221 Amor",
            "orbit_class_range": "1.017 AU < q (perihelion) < 1.3 AU"
        }
    },
    "is_sentry_object": false
}